ONEWEB-0311             
1 49097U 21075Y   26158.30002280 -.00000006  00000+0 -49709-4 0  9991
2 49097  87.9138   7.8294 0002336  85.9464 274.1934 13.17649513232329
ONEWEB-0312             
1 49098U 21075Z   26158.31520569 -.00000057  00000+0 -18122-3 0  9998
2 49098  87.9140   7.8377 0002085  93.7604 266.3766 13.17647617232306
ONEWEB-0313             
1 49099U 21075AA  26158.32011626 -.00000022  00000+0 -88578-4 0  9994
2 49099  87.9138   7.8427 0001970  87.0645 273.0712 13.17648743232298
ONEWEB-0314             
1 49100U 21075AB  26158.28651966  .00000007  00000+0 -14999-4 0  9997
2 49100  87.9152   7.8205 0002142  94.4445 265.6931 13.17648691232262
ONEWEB-0315             
1 49101U 21075AC  26158.29768093  .00000456  00000+0  12320-2 0  9990
2 49101  87.8950 352.6116 0002111  83.6343 276.5026 13.12442552233870
ONEWEB-0316             
1 49102U 21075AD  26158.21900072  .00006458  00000+0  16344-1 0  9995
2 49102  87.9168 337.4408 0001755 112.6221 247.5097 13.18653368235894
ONEWEB-0317             
1 49103U 21075AE  26157.99611954  .00000431  00000+0  11634-2 0  9991
2 49103  87.8952 352.6951 0001187 105.1944 254.9316 13.12442726233853
ONEWEB-0318             
1 49104U 21075AF  26158.21562284 -.00000064  00000+0 -19563-3 0  9993
2 49104  87.9168 337.4419 0002067  87.6445 272.4924 13.18685287235851
ONEWEB-0319             
1 49105U 21075AG  26158.30169970 -.00000019  00000+0 -82288-4 0  9994
2 49105  87.9138   7.8347 0002384  80.7445 279.3956 13.17647962232308
ONEWEB-0323             
1 49106U 21075AH  26158.28243036  .00000189  00000+0  49043-3 0  9995
2 49106  87.8953 352.6198 0002353  86.1621 273.9777 13.12444596233259
ONEWEB-0329             
1 49107U 21075AJ  26158.31013659 -.00000043  00000+0 -14367-3 0  9998
2 49107  87.9139   7.8340 0002010  89.5109 270.6253 13.17647933232283
ONEWEB-0330             
1 49108U 21075AK  26158.33391222 -.00000008  00000+0 -52552-4 0  9996
2 49108  87.9143   7.8492 0001923  94.8707 265.2644 13.17648931232320
ONEWEB-0292             
1 49186U 21083A   26158.18628978 -.00000162  00000+0 -47960-3 0  9992
2 49186  87.8937 322.2315 0001987  91.8154 268.3203 13.13469973229613
ONEWEB-0303             
1 49187U 21083B   26158.21225410  .00000044  00000+0  78369-4 0  9996
2 49187  87.9160 337.4414 0002028  89.7034 270.4331 13.18686175228661
ONEWEB-0306             
1 49188U 21083C   26158.20213372  .00000108  00000+0  24151-3 0  9990
2 49188  87.9167 337.4310 0001638  95.1691 264.9628 13.18686374228703
ONEWEB-0307             
1 49189U 21083D   26158.18036877 -.00000309  00000+0 -88123-3 0  9995
2 49189  87.8951 322.2286 0001963  94.5417 265.5937 13.13470115229618
