[{"OBJECT_NAME":"ONEWEB-0311","OBJECT_ID":"2021-075Y","EPOCH":"2026-06-07T07:12:01.969920","MEAN_MOTION":13.17649513,"ECCENTRICITY":0.0002336,"INCLINATION":87.9138,"RA_OF_ASC_NODE":7.8294,"ARG_OF_PERICENTER":85.9464,"MEAN_ANOMALY":274.1934,"EPHEMERIS_TYPE":0,"CLASSIFICATION_TYPE":"U","NORAD_CAT_ID":49097,"ELEMENT_SET_NO":999,"REV_AT_EPOCH":23232,"BSTAR":-4.9709e-05,"MEAN_MOTION_DOT":-6e-08,"MEAN_MOTION_DDOT":0.0},{"OBJECT_NAME":"ONEWEB-0312","OBJECT_ID":"2021-075Z","EPOCH":"2026-06-07T07:33:53.771616","MEAN_MOTION":13.17647617,"ECCENTRICITY":0.0002085,"INCLINATION":87.914,"RA_OF_ASC_NODE":7.8377,"ARG_OF_PERICENTER":93.7604,"MEAN_ANOMALY":266.3766,"EPHEMERIS_TYPE":0,"CLASSIFICATION_TYPE":"U","NORAD_CAT_ID":49098,"ELEMENT_SET_NO":999,"REV_AT_EPOCH":23230,"BSTAR":-0.00018122,"MEAN_MOTION_DOT":-5.7e-07,"MEAN_MOTION_DDOT":0.0},{"OBJECT_NAME":"ONEWEB-0313","OBJECT_ID":"2021-075AA","EPOCH":"2026-06-07T07:40:58.044864","MEAN_MOTION":13.17648743,"ECCENTRICITY":0.000197,"INCLINATION":87.9138,"RA_OF_ASC_NODE":7.8427,"ARG_OF_PERICENTER":87.0645,"MEAN_ANOMALY":273.0712,"EPHEMERIS_TYPE":0,"CLASSIFICATION_TYPE":"U","NORAD_CAT_ID":49099,"ELEMENT_SET_NO":999,"REV_AT_EPOCH":23229,"BSTAR":-8.8578e-05,"MEAN_MOTION_DOT":-2.2e-07,"MEAN_MOTION_DDOT":0.0},{"OBJECT_NAME":"ONEWEB-0314","OBJECT_ID":"2021-075AB","EPOCH":"2026-06-07T06:52:35.298624","MEAN_MOTION":13.17648691,"ECCENTRICITY":0.0002142,"INCLINATION":87.9152,"RA_OF_ASC_NODE":7.8205,"ARG_OF_PERICENTER":94.4445,"MEAN_ANOMALY":265.6931,"EPHEMERIS_TYPE":0,"CLASSIFICATION_TYPE":"U","NORAD_CAT_ID":49100,"ELEMENT_SET_NO":999,"REV_AT_EPOCH":23226,"BSTAR":-1.4999000000000002e-05,"MEAN_MOTION_DOT":7e-08,"MEAN_MOTION_DDOT":0.0},{"OBJECT_NAME":"ONEWEB-0315","OBJECT_ID":"2021-075AC","EPOCH":"2026-06-07T07:08:39.632352","MEAN_MOTION":13.12442552,"ECCENTRICITY":0.0002111,"INCLINATION":87.895,"RA_OF_ASC_NODE":352.6116,"ARG_OF_PERICENTER":83.6343,"MEAN_ANOMALY":276.5026,"EPHEMERIS_TYPE":0,"CLASSIFICATION_TYPE":"U","NORAD_CAT_ID":49101,"ELEMENT_SET_NO":999,"REV_AT_EPOCH":23387,"BSTAR":0.001232,"MEAN_MOTION_DOT":4.56e-06,"MEAN_MOTION_DDOT":0.0},{"OBJECT_NAME":"ONEWEB-0316","OBJECT_ID":"2021-075AD","EPOCH":"2026-06-07T05:15:21.662208","MEAN_MOTION":13.18653368,"ECCENTRICITY":0.0001755,"INCLINATION":87.9168,"RA_OF_ASC_NODE":337.4408,"ARG_OF_PERICENTER":112.6221,"MEAN_ANOMALY":247.5097,"EPHEMERIS_TYPE":0,"CLASSIFICATION_TYPE":"U","NORAD_CAT_ID":49102,"ELEMENT_SET_NO":999,"REV_AT_EPOCH":23589,"BSTAR":0.016344,"MEAN_MOTION_DOT":6.458e-05,"MEAN_MOTION_DDOT":0.0},{"OBJECT_NAME":"ONEWEB-0317","OBJECT_ID":"2021-075AE","EPOCH":"2026-06-06T23:54:24.728256","MEAN_MOTION":13.12442726,"ECCENTRICITY":0.0001187,"INCLINATION":87.8952,"RA_OF_ASC_NODE":352.6951,"ARG_OF_PERICENTER":105.1944,"MEAN_ANOMALY":254.9316,"EPHEMERIS_TYPE":0,"CLASSIFICATION_TYPE":"U","NORAD_CAT_ID":49103,"ELEMENT_SET_NO":999,"REV_AT_EPOCH":23385,"BSTAR":0.0011634,"MEAN_MOTION_DOT":4.31e-06,"MEAN_MOTION_DDOT":0.0},{"OBJECT_NAME":"ONEWEB-0318","OBJECT_ID":"2021-075AF","EPOCH":"2026-06-07T05:10:29.813376","MEAN_MOTION":13.18685287,"ECCENTRICITY":0.0002067,"INCLINATION":87.9168,"RA_OF_ASC_NODE":337.4419,"ARG_OF_PERICENTER":87.6445,"MEAN_ANOMALY":272.4924,"EPHEMERIS_TYPE":0,"CLASSIFICATION_TYPE":"U","NORAD_CAT_ID":49104,"ELEMENT_SET_NO":999,"REV_AT_EPOCH":23585,"BSTAR":-0.00019563,"MEAN_MOTION_DOT":-6.4e-07,"MEAN_MOTION_DDOT":0.0},{"OBJECT_NAME":"ONEWEB-0319","OBJECT_ID":"2021-075AG","EPOCH":"2026-06-07T07:14:26.854080","MEAN_MOTION":13.17647962,"ECCENTRICITY":0.0002384,"INCLINATION":87.9138,"RA_OF_ASC_NODE":7.8347,"ARG_OF_PERICENTER":80.7445,"MEAN_ANOMALY":279.3956,"EPHEMERIS_TYPE":0,"CLASSIFICATION_TYPE":"U","NORAD_CAT_ID":49105,"ELEMENT_SET_NO":999,"REV_AT_EPOCH":23230,"BSTAR":-8.2288e-05,"MEAN_MOTION_DOT":-1.9e-07,"MEAN_MOTION_DDOT":0.0},{"OBJECT_NAME":"ONEWEB-0323","OBJECT_ID":"2021-075AH","EPOCH":"2026-06-07T06:46:41.983104","MEAN_MOTION":13.12444596,"ECCENTRICITY":0.0002353,"INCLINATION":87.8953,"RA_OF_ASC_NODE":352.6198,"ARG_OF_PERICENTER":86.1621,"MEAN_ANOMALY":273.9777,"EPHEMERIS_TYPE":0,"CLASSIFICATION_TYPE":"U","NORAD_CAT_ID":49106,"ELEMENT_SET_NO":999,"REV_AT_EPOCH":23325,"BSTAR":0.00049043,"MEAN_MOTION_DOT":1.89e-06,"MEAN_MOTION_DDOT":0.0},{"OBJECT_NAME":"ONEWEB-0329","OBJECT_ID":"2021-075AJ","EPOCH":"2026-06-07T07:26:35.801376","MEAN_MOTION":13.17647933,"ECCENTRICITY":0.000201,"INCLINATION":87.9139,"RA_OF_ASC_NODE":7.834,"ARG_OF_PERICENTER":89.5109,"MEAN_ANOMALY":270.6253,"EPHEMERIS_TYPE":0,"CLASSIFICATION_TYPE":"U","NORAD_CAT_ID":49107,"ELEMENT_SET_NO":999,"REV_AT_EPOCH":23228,"BSTAR":-0.00014366999999999998,"MEAN_MOTION_DOT":-4.3e-07,"MEAN_MOTION_DDOT":0.0},{"OBJECT_NAME":"ONEWEB-0330","OBJECT_ID":"2021-075AK","EPOCH":"2026-06-07T08:00:50.015808","MEAN_MOTION":13.17648931,"ECCENTRICITY":0.0001923,"INCLINATION":87.9143,"RA_OF_ASC_NODE":7.8492,"ARG_OF_PERICENTER":94.8707,"MEAN_ANOMALY":265.2644,"EPHEMERIS_TYPE":0,"CLASSIFICATION_TYPE":"U","NORAD_CAT_ID":49108,"ELEMENT_SET_NO":999,"REV_AT_EPOCH":23232,"BSTAR":-5.2552e-05,"MEAN_MOTION_DOT":-8e-08,"MEAN_MOTION_DDOT":0.0},{"OBJECT_NAME":"ONEWEB-0292","OBJECT_ID":"2021-083A","EPOCH":"2026-06-07T04:28:15.436992","MEAN_MOTION":13.13469973,"ECCENTRICITY":0.0001987,"INCLINATION":87.8937,"RA_OF_ASC_NODE":322.2315,"ARG_OF_PERICENTER":91.8154,"MEAN_ANOMALY":268.3203,"EPHEMERIS_TYPE":0,"CLASSIFICATION_TYPE":"U","NORAD_CAT_ID":49186,"ELEMENT_SET_NO":999,"REV_AT_EPOCH":22961,"BSTAR":-0.00047960000000000006,"MEAN_MOTION_DOT":-1.62e-06,"MEAN_MOTION_DDOT":0.0},{"OBJECT_NAME":"ONEWEB-0303","OBJECT_ID":"2021-083B","EPOCH":"2026-06-07T05:05:38.754240","MEAN_MOTION":13.18686175,"ECCENTRICITY":0.0002028,"INCLINATION":87.916,"RA_OF_ASC_NODE":337.4414,"ARG_OF_PERICENTER":89.7034,"MEAN_ANOMALY":270.4331,"EPHEMERIS_TYPE":0,"CLASSIFICATION_TYPE":"U","NORAD_CAT_ID":49187,"ELEMENT_SET_NO":999,"REV_AT_EPOCH":22866,"BSTAR":7.836900000000001e-05,"MEAN_MOTION_DOT":4.4e-07,"MEAN_MOTION_DDOT":0.0},{"OBJECT_NAME":"ONEWEB-0306","OBJECT_ID":"2021-083C","EPOCH":"2026-06-07T04:51:04.353408","MEAN_MOTION":13.18686374,"ECCENTRICITY":0.0001638,"INCLINATION":87.9167,"RA_OF_ASC_NODE":337.431,"ARG_OF_PERICENTER":95.1691,"MEAN_ANOMALY":264.9628,"EPHEMERIS_TYPE":0,"CLASSIFICATION_TYPE":"U","NORAD_CAT_ID":49188,"ELEMENT_SET_NO":999,"REV_AT_EPOCH":22870,"BSTAR":0.00024151,"MEAN_MOTION_DOT":1.08e-06,"MEAN_MOTION_DDOT":0.0},{"OBJECT_NAME":"ONEWEB-0307","OBJECT_ID":"2021-083D","EPOCH":"2026-06-07T04:19:43.861728","MEAN_MOTION":13.13470115,"ECCENTRICITY":0.0001963,"INCLINATION":87.8951,"RA_OF_ASC_NODE":322.2286,"ARG_OF_PERICENTER":94.5417,"MEAN_ANOMALY":265.5937,"EPHEMERIS_TYPE":0,"CLASSIFICATION_TYPE":"U","NORAD_CAT_ID":49189,"ELEMENT_SET_NO":999,"REV_AT_EPOCH":22961,"BSTAR":-0.00088123,"MEAN_MOTION_DOT":-3.09e-06,"MEAN_MOTION_DDOT":0.0}]